[{"OBJECT_NAME":"SL-8 R/B","OBJECT_ID":"1991-006B","EPOCH":"2026-04-26T13:49:13.154016","MEAN_MOTION":13.77504699,"ECCENTRICITY":0.002095,"INCLINATION":82.9398,"RA_OF_ASC_NODE":134.4335,"ARG_OF_PERICENTER":260.4031,"MEAN_ANOMALY":217.6905,"EPHEMERIS_TYPE":0,"CLASSIFICATION_TYPE":"U","NORAD_CAT_ID":21088,"ELEMENT_SET_NO":999,"REV_AT_EPOCH":77066,"BSTAR":0.00018444,"MEAN_MOTION_DOT":1.99e-6,"MEAN_MOTION_DDOT":0},{"OBJECT_NAME":"OKEAN-3","OBJECT_ID":"1991-039A","EPOCH":"2026-04-26T18:01:18.871104","MEAN_MOTION":15.05060428,"ECCENTRICITY":0.0014407,"INCLINATION":82.5132,"RA_OF_ASC_NODE":290.2566,"ARG_OF_PERICENTER":160.9762,"MEAN_ANOMALY":199.2006,"EPHEMERIS_TYPE":0,"CLASSIFICATION_TYPE":"U","NORAD_CAT_ID":21397,"ELEMENT_SET_NO":999,"REV_AT_EPOCH":87226,"BSTAR":0.00028413,"MEAN_MOTION_DOT":4.073e-5,"MEAN_MOTION_DDOT":0},{"OBJECT_NAME":"COSMOS 2151","OBJECT_ID":"1991-042A","EPOCH":"2026-04-26T20:09:43.299936","MEAN_MOTION":15.00297019,"ECCENTRICITY":0.0010635,"INCLINATION":82.4988,"RA_OF_ASC_NODE":37.2226,"ARG_OF_PERICENTER":255.6344,"MEAN_ANOMALY":104.3699,"EPHEMERIS_TYPE":0,"CLASSIFICATION_TYPE":"U","NORAD_CAT_ID":21422,"ELEMENT_SET_NO":999,"REV_AT_EPOCH":87041,"BSTAR":0.00013282,"MEAN_MOTION_DOT":1.692e-5,"MEAN_MOTION_DDOT":0},{"OBJECT_NAME":"SL-14 R/B","OBJECT_ID":"1991-042B","EPOCH":"2026-04-26T15:11:14.262144","MEAN_MOTION":14.81870862,"ECCENTRICITY":0.0018582,"INCLINATION":82.4944,"RA_OF_ASC_NODE":175.2401,"ARG_OF_PERICENTER":84.4963,"MEAN_ANOMALY":275.837,"EPHEMERIS_TYPE":0,"CLASSIFICATION_TYPE":"U","NORAD_CAT_ID":21423,"ELEMENT_SET_NO":999,"REV_AT_EPOCH":86017,"BSTAR":4.1717e-5,"MEAN_MOTION_DOT":3.54e-6,"MEAN_MOTION_DDOT":0},{"OBJECT_NAME":"ERS-1","OBJECT_ID":"1991-050A","EPOCH":"2026-04-26T19:09:31.619232","MEAN_MOTION":14.39483955,"ECCENTRICITY":0.003296,"INCLINATION":98.7834,"RA_OF_ASC_NODE":136.2343,"ARG_OF_PERICENTER":60.8201,"MEAN_ANOMALY":299.6277,"EPHEMERIS_TYPE":0,"CLASSIFICATION_TYPE":"U","NORAD_CAT_ID":21574,"ELEMENT_SET_NO":999,"REV_AT_EPOCH":82265,"BSTAR":0.00011887,"MEAN_MOTION_DOT":3.27e-6,"MEAN_MOTION_DDOT":0},{"OBJECT_NAME":"ARIANE 40 R/B","OBJECT_ID":"1991-050F","EPOCH":"2026-04-26T17:38:14.178912","MEAN_MOTION":14.42925767,"ECCENTRICITY":0.0001811,"INCLINATION":98.192,"RA_OF_ASC_NODE":167.1452,"ARG_OF_PERICENTER":297.8119,"MEAN_ANOMALY":62.2888,"EPHEMERIS_TYPE":0,"CLASSIFICATION_TYPE":"U","NORAD_CAT_ID":21610,"ELEMENT_SET_NO":999,"REV_AT_EPOCH":82592,"BSTAR":9.7769e-5,"MEAN_MOTION_DOT":2.85e-6,"MEAN_MOTION_DDOT":0},{"OBJECT_NAME":"INTERCOSMOS 25","OBJECT_ID":"1991-086A","EPOCH":"2026-04-26T16:41:22.141824","MEAN_MOTION":12.12131068,"ECCENTRICITY":0.1485693,"INCLINATION":82.5993,"RA_OF_ASC_NODE":280.9719,"ARG_OF_PERICENTER":13.4692,"MEAN_ANOMALY":350.1877,"EPHEMERIS_TYPE":0,"CLASSIFICATION_TYPE":"U","NORAD_CAT_ID":21819,"ELEMENT_SET_NO":999,"REV_AT_EPOCH":50250,"BSTAR":0.00013749,"MEAN_MOTION_DOT":7.19e-6,"MEAN_MOTION_DDOT":0},{"OBJECT_NAME":"SL-8 R/B","OBJECT_ID":"1992-008B","EPOCH":"2026-04-26T20:56:11.300064","MEAN_MOTION":13.75970817,"ECCENTRICITY":0.0034516,"INCLINATION":82.9279,"RA_OF_ASC_NODE":231.9355,"ARG_OF_PERICENTER":2.393,"MEAN_ANOMALY":117.5637,"EPHEMERIS_TYPE":0,"CLASSIFICATION_TYPE":"U","NORAD_CAT_ID":21876,"ELEMENT_SET_NO":999,"REV_AT_EPOCH":71604,"BSTAR":3.9766e-5,"MEAN_MOTION_DOT":5.4e-7,"MEAN_MOTION_DDOT":0},{"OBJECT_NAME":"SL-8 R/B","OBJECT_ID":"1992-020B","EPOCH":"2026-04-26T19:05:43.848096","MEAN_MOTION":13.7554826,"ECCENTRICITY":0.0029469,"INCLINATION":82.9268,"RA_OF_ASC_NODE":118.0321,"ARG_OF_PERICENTER":160.8049,"MEAN_ANOMALY":13.2135,"EPHEMERIS_TYPE":0,"CLASSIFICATION_TYPE":"U","NORAD_CAT_ID":21938,"ELEMENT_SET_NO":999,"REV_AT_EPOCH":70774,"BSTAR":-6.9843e-5,"MEAN_MOTION_DOT":-5.2e-7,"MEAN_MOTION_DDOT":0},{"OBJECT_NAME":"USA 81","OBJECT_ID":"1992-023A","EPOCH":"2026-04-26T17:17:44.716416","MEAN_MOTION":14.32382764,"ECCENTRICITY":0.0001358,"INCLINATION":85.0036,"RA_OF_ASC_NODE":103.713,"ARG_OF_PERICENTER":104.4886,"MEAN_ANOMALY":255.6457,"EPHEMERIS_TYPE":0,"CLASSIFICATION_TYPE":"U","NORAD_CAT_ID":21949,"ELEMENT_SET_NO":999,"REV_AT_EPOCH":10166,"BSTAR":6.4437e-5,"MEAN_MOTION_DOT":1.94e-6,"MEAN_MOTION_DDOT":0},{"OBJECT_NAME":"COSMOS 2219","OBJECT_ID":"1992-076A","EPOCH":"2026-04-26T20:02:34.525248","MEAN_MOTION":14.14096734,"ECCENTRICITY":0.0016767,"INCLINATION":71.0597,"RA_OF_ASC_NODE":277.4205,"ARG_OF_PERICENTER":130.7408,"MEAN_ANOMALY":229.5174,"EPHEMERIS_TYPE":0,"CLASSIFICATION_TYPE":"U","NORAD_CAT_ID":22219,"ELEMENT_SET_NO":999,"REV_AT_EPOCH":72518,"BSTAR":0.00022339,"MEAN_MOTION_DOT":3.79e-6,"MEAN_MOTION_DDOT":0},{"OBJECT_NAME":"SL-16 R/B","OBJECT_ID":"1992-076B","EPOCH":"2026-04-26T15:43:51.252384","MEAN_MOTION":14.16865252,"ECCENTRICITY":0.0012118,"INCLINATION":70.9982,"RA_OF_ASC_NODE":87.3334,"ARG_OF_PERICENTER":11.6465,"MEAN_ANOMALY":160.6276,"EPHEMERIS_TYPE":0,"CLASSIFICATION_TYPE":"U","NORAD_CAT_ID":22220,"ELEMENT_SET_NO":999,"REV_AT_EPOCH":72862,"BSTAR":-5.4273e-5,"MEAN_MOTION_DOT":-1.57e-6,"MEAN_MOTION_DDOT":0},{"OBJECT_NAME":"COSMOS 2221","OBJECT_ID":"1992-080A","EPOCH":"2026-04-26T18:51:53.894016","MEAN_MOTION":14.96393877,"ECCENTRICITY":0.0014922,"INCLINATION":82.5046,"RA_OF_ASC_NODE":232.9994,"ARG_OF_PERICENTER":36.3636,"MEAN_ANOMALY":323.8596,"EPHEMERIS_TYPE":0,"CLASSIFICATION_TYPE":"U","NORAD_CAT_ID":22236,"ELEMENT_SET_NO":999,"REV_AT_EPOCH":78798,"BSTAR":0.00017059,"MEAN_MOTION_DOT":1.962e-5,"MEAN_MOTION_DDOT":0},{"OBJECT_NAME":"SL-16 R/B","OBJECT_ID":"1992-093B","EPOCH":"2026-04-26T19:04:51.805056","MEAN_MOTION":14.15458354,"ECCENTRICITY":0.0006127,"INCLINATION":71.0212,"RA_OF_ASC_NODE":263.2764,"ARG_OF_PERICENTER":245.0407,"MEAN_ANOMALY":115.008,"EPHEMERIS_TYPE":0,"CLASSIFICATION_TYPE":"U","NORAD_CAT_ID":22285,"ELEMENT_SET_NO":999,"REV_AT_EPOCH":71996,"BSTAR":0.00019832,"MEAN_MOTION_DOT":3.4e-6,"MEAN_MOTION_DDOT":0},{"OBJECT_NAME":"COSMOS 2228","OBJECT_ID":"1992-094A","EPOCH":"2026-04-26T20:05:01.940928","MEAN_MOTION":14.97414278,"ECCENTRICITY":0.0019085,"INCLINATION":82.5201,"RA_OF_ASC_NODE":191.2178,"ARG_OF_PERICENTER":136.8425,"MEAN_ANOMALY":223.4297,"EPHEMERIS_TYPE":0,"CLASSIFICATION_TYPE":"U","NORAD_CAT_ID":22286,"ELEMENT_SET_NO":999,"REV_AT_EPOCH":78326,"BSTAR":0.00015178,"MEAN_MOTION_DOT":1.797e-5,"MEAN_MOTION_DDOT":0},{"OBJECT_NAME":"SL-16 R/B","OBJECT_ID":"1993-016B","EPOCH":"2026-04-26T16:46:29.407872","MEAN_MOTION":14.1530929,"ECCENTRICITY":0.0012528,"INCLINATION":71.0036,"RA_OF_ASC_NODE":114.3496,"ARG_OF_PERICENTER":253.5637,"MEAN_ANOMALY":106.4109,"EPHEMERIS_TYPE":0,"CLASSIFICATION_TYPE":"U","NORAD_CAT_ID":22566,"ELEMENT_SET_NO":999,"REV_AT_EPOCH":70896,"BSTAR":-0.00010942,"MEAN_MOTION_DOT":-2.61e-6,"MEAN_MOTION_DDOT":0},{"OBJECT_NAME":"COSMOS 2242","OBJECT_ID":"1993-024A","EPOCH":"2026-04-26T18:33:35.261856","MEAN_MOTION":14.96749068,"ECCENTRICITY":0.0017335,"INCLINATION":82.5205,"RA_OF_ASC_NODE":220.7186,"ARG_OF_PERICENTER":140.1715,"MEAN_ANOMALY":220.0784,"EPHEMERIS_TYPE":0,"CLASSIFICATION_TYPE":"U","NORAD_CAT_ID":22626,"ELEMENT_SET_NO":999,"REV_AT_EPOCH":78758,"BSTAR":0.00017973,"MEAN_MOTION_DOT":2.086e-5,"MEAN_MOTION_DDOT":0}]
