SL-8 R/B                
1 21088U 91006B   26116.57584669  .00000199  00000+0  18444-3 0  9993
2 21088  82.9398 134.4335 0020950 260.4031 217.6905 13.77504699770662
OKEAN-3                 
1 21397U 91039A   26116.75091286  .00004073  00000+0  28413-3 0  9992
2 21397  82.5132 290.2566 0014407 160.9762 199.2006 15.05060428872265
COSMOS 2151             
1 21422U 91042A   26116.84008449  .00001692  00000+0  13282-3 0  9996
2 21422  82.4988  37.2226 0010635 255.6344 104.3699 15.00297019870414
SL-14 R/B               
1 21423U 91042B   26116.63280396  .00000354  00000+0  41717-4 0  9996
2 21423  82.4944 175.2401 0018582  84.4963 275.8370 14.81870862860172
ERS-1                   
1 21574U 91050A   26116.79828263  .00000327  00000+0  11887-3 0  9994
2 21574  98.7834 136.2343 0032960  60.8201 299.6277 14.39483955822655
ARIANE 40 R/B           
1 21610U 91050F   26116.73488633  .00000285  00000+0  97769-4 0  9999
2 21610  98.1920 167.1452 0001811 297.8119  62.2888 14.42925767825922
INTERCOSMOS 25          
1 21819U 91086A   26116.69539516  .00000719  00000+0  13749-3 0  9998
2 21819  82.5993 280.9719 1485693  13.4692 350.1877 12.12131068502504
SL-8 R/B                
1 21876U 92008B   26116.87235301  .00000054  00000+0  39766-4 0  9991
2 21876  82.9279 231.9355 0034516   2.3930 117.5637 13.75970817716043
SL-8 R/B                
1 21938U 92020B   26116.79564639 -.00000052  00000+0 -69843-4 0  9993
2 21938  82.9268 118.0321 0029469 160.8049  13.2135 13.75548260707745
USA 81                  
1 21949U 92023A   26116.72065644  .00000194  00000+0  64437-4 0  9992
2 21949  85.0036 103.7130 0001358 104.4886 255.6457 14.32382764101660
COSMOS 2219             
1 22219U 92076A   26116.83512182  .00000379  00000+0  22339-3 0  9996
2 22219  71.0597 277.4205 0016767 130.7408 229.5174 14.14096734725186
SL-16 R/B               
1 22220U 92076B   26116.65545431 -.00000157  00000+0 -54273-4 0  9990
2 22220  70.9982  87.3334 0012118  11.6465 160.6276 14.16865252728622
COSMOS 2221             
1 22236U 92080A   26116.78604044  .00001962  00000+0  17059-3 0  9995
2 22236  82.5046 232.9994 0014922  36.3636 323.8596 14.96393877787987
SL-16 R/B               
1 22285U 92093B   26116.79504404  .00000340  00000+0  19832-3 0  9993
2 22285  71.0212 263.2764 0006127 245.0407 115.0080 14.15458354719969
COSMOS 2228             
1 22286U 92094A   26116.83682802  .00001797  00000+0  15178-3 0  9995
2 22286  82.5201 191.2178 0019085 136.8425 223.4297 14.97414278783263
SL-16 R/B               
1 22566U 93016B   26116.69895148 -.00000261  00000+0 -10942-3 0  9995
2 22566  71.0036 114.3496 0012528 253.5637 106.4109 14.15309290708962
COSMOS 2242             
1 22626U 93024A   26116.77332479  .00002086  00000+0  17973-3 0  9999
2 22626  82.5205 220.7186 0017335 140.1715 220.0784 14.96749068787588
